NORAD_CAT_ID,OBJECT_NAME,OBJECT_TYPE,EPOCH,MEAN_MOTION,ECCENTRICITY,INCLINATION,RA_OF_ASC_NODE,ARG_OF_PERICENTER,MEAN_ANOMALY,BSTAR,MEAN_MOTION_DOT,MEAN_MOTION_DDOT,TLE_LINE0,TLE_LINE1,TLE_LINE2,SEMIMAJOR_AXIS,PERIOD,APOGEE,PERIGEE,DECAYED
53246.0,STARLINK-4131,PAYLOAD,2023-04-16 20:14:57,15.08852552,0.0001028,53.2166,272.9756,90.1726,269.9384,0.00027333,4.066e-05,0.0,0 STARLINK-4131,1 53246U 22086E   23106.84371830  .00004066  00000-0  27333-3 0  9991,2 53246  53.2166 272.9756 0001028  90.1726 269.9384 15.08852552 40432,6917.842,95.437,540.418,538.996,0.0
53246.0,STARLINK-4131,PAYLOAD,2023-04-17 04:11:53,15.08843895,0.000129,53.2166,271.4882,85.8782,274.2357,0.00023431,3.443e-05,0.0,0 STARLINK-4131,1 53246U 22086E   23107.17492347  .00003443  00000-0  23431-3 0  9998,2 53246  53.2166 271.4882 0001290  85.8782 274.2357 15.08843895 41092,6917.868,95.437,540.626,538.841,0.0
53246.0,STARLINK-4131,PAYLOAD,2023-04-17 10:33:26,15.08840512,0.0001566,53.2157,270.2996,86.4321,273.685,0.0002388,3.515e-05,0.0,0 STARLINK-4131,1 53246U 22086E   23107.43988691  .00003515  00000-0  23880-3 0  9997,2 53246  53.2157 270.2996 0001566  86.4321 273.6850 15.08840512 40528,6917.879,95.438,540.827,538.66,0.0
53246.0,STARLINK-4131,PAYLOAD,2023-04-17 18:30:21,15.08843088,0.0001031,53.217,268.8151,59.2959,300.8135,0.00017385,2.48e-05,0.0,0 STARLINK-4131,1 53246U 22086E   23107.77108445  .00002480  00000-0  17385-3 0  9998,2 53246  53.2170 268.8151 0001031  59.2959 300.8135 15.08843088 40576,6917.871,95.437,540.449,539.023,0.0
53246.0,STARLINK-4131,PAYLOAD,2023-04-18 04:02:40,15.08843714,0.0001189,53.2164,267.0293,85.2175,274.8953,9.009e-05,1.146e-05,0.0,0 STARLINK-4131,1 53246U 22086E   23108.16852295  .00001146  00000-0  90090-4 0  9994,2 53246  53.2164 267.0293 0001189  85.2175 274.8953 15.08843714 40631,6917.869,95.437,540.557,538.912,0.0
53246.0,STARLINK-4131,PAYLOAD,2023-04-18 16:45:45,15.08842866,0.0001217,53.218,264.6512,85.2341,274.879,7.7112e-05,9.4e-06,0.0,0 STARLINK-4131,1 53246U 22086E   23108.69844361  .00000940  00000-0  77112-4 0  9998,2 53246  53.2180 264.6512 0001217  85.2341 274.8790 15.08842866 40718,6917.872,95.437,540.579,538.895,0.0
53246.0,STARLINK-4131,PAYLOAD,2023-04-19 03:53:27,15.08835977,0.000121,53.2175,262.5697,70.7439,289.3684,-3.1939e-05,-7.96e-06,0.0,0 STARLINK-4131,1 53246U 22086E   23109.16212691 -.00000796  00000-0 -31939-4 0  9994,2 53246  53.2175 262.5697 0001210  70.7439 289.3684 15.08835977 41396,6917.893,95.438,540.595,538.921,0.0
53246.0,STARLINK-4131,PAYLOAD,2023-04-19 10:15:00,15.08836085,0.0001244,53.2162,261.3807,65.2057,294.9065,7.6127e-05,9.24e-06,0.0,0 STARLINK-4131,1 53246U 22086E   23109.42708850  .00000924  00000-0  76127-4 0  9999,2 53246  53.2162 261.3807 0001244  65.2057 294.9065 15.08836085 40827,6917.892,95.438,540.618,538.897,0.0
53246.0,STARLINK-4131,PAYLOAD,2023-04-19 16:36:32,15.08844162,9.68e-05,53.2158,260.191,70.3402,289.7695,0.00019067,2.748e-05,0.0,0 STARLINK-4131,1 53246U 22086E   23109.69204336  .00002748  00000-0  19067-3 0  9993,2 53246  53.2158 260.1910 0000968  70.3402 289.7695 15.08844162 40867,6917.868,95.437,540.402,539.063,0.0
53246.0,STARLINK-4131,PAYLOAD,2023-04-19 21:22:41,15.08856357,0.0001188,53.2172,259.2963,76.5189,283.5935,0.00026118,3.873e-05,0.0,0 STARLINK-4131,1 53246U 22086E   23109.89075580  .00003873  00000-0  26118-3 0  9997,2 53246  53.2172 259.2963 0001188  76.5189 283.5935 15.08856357 41505,6917.83,95.437,540.517,538.874,0.0
53246.0,STARLINK-4131,PAYLOAD,2023-04-20 10:05:47,15.08832974,0.000135,53.2159,256.9185,70.9119,289.2019,3.6452e-05,2.92e-06,0.0,0 STARLINK-4131,1 53246U 22086E   23110.42069041  .00000292  00000-0  36452-4 0  9998,2 53246  53.2159 256.9185 0001350  70.9119 289.2019 15.08832974 40977,6917.902,95.438,540.701,538.833,0.0
53246.0,STARLINK-4131,PAYLOAD,2023-04-20 13:16:33,15.08834834,0.0001282,53.2159,256.3232,86.0507,274.0632,5.5845e-05,6.01e-06,0.0,0 STARLINK-4131,1 53246U 22086E   23110.55317035  .00000601  00000-0  55845-4 0  9992,2 53246  53.2159 256.3232 0001282  86.0507 274.0632 15.08834834 41608,6917.896,95.438,540.648,538.874,0.0
53246.0,STARLINK-4131,PAYLOAD,2023-04-20 21:13:28,15.08846916,0.0001123,53.2167,254.8352,85.1335,274.9786,0.00019402,2.802e-05,0.0,0 STARLINK-4131,1 53246U 22086E   23110.88436306  .00002802  00000-0  19402-3 0  9994,2 53246  53.2167 254.8352 0001123  85.1335 274.9786 15.08846916 41047,6917.859,95.437,540.501,538.947,0.0
53246.0,STARLINK-4131,PAYLOAD,2023-04-21 16:18:06,15.08842227,0.0001144,53.2148,251.2702,86.5076,273.6047,0.00014544,2.028e-05,0.0,0 STARLINK-4131,1 53246U 22086E   23111.67924705  .00002028  00000-0  14544-3 0  9999,2 53246  53.2148 251.2702 0001144  86.5076 273.6047 15.08842227 41773,6917.874,95.437,540.53,538.947,0.0
53246.0,STARLINK-4131,PAYLOAD,2023-04-21 21:04:15,15.08856884,0.0001164,53.2175,250.3733,77.7077,282.4046,0.00040151,6.111e-05,0.0,0 STARLINK-4131,1 53246U 22086E   23111.87796074  .00006111  00000-0  40151-3 0  9997,2 53246  53.2175 250.3733 0001164  77.7077 282.4046 15.08856884 41199,6917.829,95.436,540.499,538.889,0.0
53246.0,STARLINK-4131,PAYLOAD,2023-04-22 01:50:25,15.08835774,0.00011,53.2159,249.4848,75.5084,284.603,-2.7888e-05,-7.32e-06,0.0,0 STARLINK-4131,1 53246U 22086E   23112.07668777 -.00000732  00000-0 -27888-4 0  9996,2 53246  53.2159 249.4848 0001100  75.5084 284.6030 15.08835774 41834,6917.893,95.438,540.519,538.997,0.0
53246.0,STARLINK-4131,PAYLOAD,2023-04-22 19:19:40,15.08847454,0.0001245,53.2165,246.2122,71.7284,288.3844,0.00021264,3.099e-05,0.0,0 STARLINK-4131,1 53246U 22086E   23112.80532469  .00003099  00000-0  21264-3 0  9993,2 53246  53.2165 246.2122 0001245  71.7284 288.3844 15.08847454 41945,6917.858,95.437,540.584,538.861,0.0
53246.0,STARLINK-4131,PAYLOAD,2023-04-23 01:41:13,15.08828493,0.0001653,53.216,245.024,82.7979,277.3201,-0.00016057,-2.842e-05,0.0,0 STARLINK-4131,1 53246U 22086E   23113.07029257 -.00002842  00000-0 -16057-3 0  9990,2 53246  53.2160 245.0240 0001653  82.7979 277.3201 15.08828493 41985,6917.916,95.438,540.924,538.637,0.0
53246.0,STARLINK-4131,PAYLOAD,2023-04-23 20:45:49,15.08855478,0.0001417,53.2161,241.4545,209.6225,150.4687,0.00048129,7.383e-05,0.0,0 STARLINK-4131,1 53246U 22086E   23113.86515973  .00007383  00000-0  48129-3 0  9990,2 53246  53.2161 241.4545 0001417 209.6225 150.4687 15.08855478 41494,6917.833,95.437,540.678,538.718,0.0
53246.0,STARLINK-4131,PAYLOAD,2023-04-25 01:22:44,15.08765943,5.71e-05,53.2159,236.1046,166.4084,193.6924,0.00093466,0.00014589,0.0,0 STARLINK-4131,1 53246U 22086E   23115.05746387  .00014589  00000-0  93466-3 0  9998,2 53246  53.2159 236.1046 0000571 166.4084 193.6924 15.08765943 42289,6918.107,95.442,540.367,539.577,0.0
53246.0,STARLINK-4131,PAYLOAD,2023-04-25 07:44:18,15.08779348,7.64e-05,53.2162,234.9143,106.9718,253.1358,-0.00033154,-5.551e-05,0.0,0 STARLINK-4131,1 53246U 22086E   23115.32243476 -.00005551  00000-0 -33154-3 0  9998,2 53246  53.2162 234.9143 0000764 106.9718 253.1358 15.08779348 41718,6918.066,95.441,540.459,539.402,0.0
53246.0,STARLINK-4131,PAYLOAD,2023-04-26 12:21:17,15.08825333,0.0001062,53.2155,229.5624,105.8612,254.2497,0.0011644,0.00018285,0.0,0 STARLINK-4131,1 53246U 22086E   23116.51478729  .00018285  00000-0  11644-2 0  9996,2 53246  53.2155 229.5624 0001062 105.8612 254.2497 15.08825333 42507,6917.925,95.438,540.525,539.056,0.0
53246.0,STARLINK-4131,PAYLOAD,2023-04-27 12:12:04,15.088646,0.0001022,53.2157,225.1019,100.5684,259.5423,0.001235,0.00019435,0.0,0 STARLINK-4131,1 53246U 22086E   23117.50838291  .00019435  00000-0  12350-2 0  9993,2 53246  53.2157 225.1019 0001022 100.5684 259.5423 15.08864600 42042,6917.805,95.436,540.377,538.963,0.0
53246.0,STARLINK-4131,PAYLOAD,2023-04-27 16:58:13,15.08874169,0.0001018,53.2163,224.2097,103.4251,256.6854,0.001319,0.00020786,0.0,0 STARLINK-4131,1 53246U 22086E   23117.70709859  .00020786  00000-0  13190-2 0  9996,2 53246  53.2163 224.2097 0001018 103.4251 256.6854 15.08874169 42689,6917.776,95.435,540.345,538.937,0.0
53246.0,STARLINK-4131,PAYLOAD,2023-04-28 12:02:50,15.0884574,5.14e-05,53.216,220.6416,48.9988,311.1049,-6.5612e-06,-3.92e-06,0.0,0 STARLINK-4131,1 53246U 22086E   23118.50197615 -.00000392  00000-0 -65612-5 0  9998,2 53246  53.2160 220.6416 0000514  48.9988 311.1049 15.08845740 42801,6917.863,95.437,540.083,539.372,0.0
53246.0,STARLINK-4131,PAYLOAD,2023-04-29 11:53:37,15.088459,7.46e-05,53.2169,216.1817,102.8552,257.2524,0.00038187,5.796e-05,0.0,0 STARLINK-4131,1 53246U 22086E   23119.49557702  .00005796  00000-0  38187-3 0  9990,2 53246  53.2169 216.1817 0000746 102.8552 257.2524 15.08845900 42344,6917.862,95.437,540.243,539.211,0.0
53246.0,STARLINK-4131,PAYLOAD,2023-04-29 18:15:10,15.08856287,7.88e-05,53.2167,214.9913,97.8728,262.2353,0.00069922,0.00010863,0.0,0 STARLINK-4131,1 53246U 22086E   23119.76053386  .00010863  00000-0  69922-3 0  9991,2 53246  53.2167 214.9913 0000788  97.8728 262.2353 15.08856287 42996,6917.831,95.437,540.241,539.15,0.0
53246.0,STARLINK-4131,PAYLOAD,2023-04-30 11:44:24,15.0884947,7.66e-05,53.2162,211.7203,112.5942,247.5131,0.00029307,4.381e-05,0.0,0 STARLINK-4131,1 53246U 22086E   23120.48917331  .00004381  00000-0  29307-3 0  9992,2 53246  53.2162 211.7203 0000766 112.5942 247.5131 15.08849470 43107,6917.851,95.437,540.246,539.187,0.0
53246.0,STARLINK-4131,PAYLOAD,2023-05-01 13:10:35,15.08838816,6.96e-05,53.2161,206.9603,124.3236,235.7822,0.00057396,8.858e-05,0.0,0 STARLINK-4131,1 53246U 22086E   23121.54901656  .00008858  00000-0  57396-3 0  9995,2 53246  53.2161 206.9603 0000696 124.3236 235.7822 15.08838816 43260,6917.884,95.438,540.23,539.268,0.0
53246.0,STARLINK-4131,PAYLOAD,2023-05-01 14:45:58,15.08837982,7.12e-05,53.2165,206.6635,124.0567,236.0492,0.00055585,8.569e-05,0.0,0 STARLINK-4131,1 53246U 22086E   23121.61525712  .00008569  00000-0  55585-3 0  9995,2 53246  53.2165 206.6635 0000712 124.0567 236.0492 15.08837982 42662,6917.887,95.438,540.244,539.259,0.0
